[{"OBJECT_NAME":"STARLINK-31467","OBJECT_ID":"2024-049E","EPOCH":"2026-03-09T12:58:14.447136","MEAN_MOTION":15.27573653,"ECCENTRICITY":0.0001386,"INCLINATION":43.0021,"RA_OF_ASC_NODE":144.3464,"ARG_OF_PERICENTER":274.4787,"MEAN_ANOMALY":85.5906,"EPHEMERIS_TYPE":0,"CLASSIFICATION_TYPE":"U","NORAD_CAT_ID":59235,"ELEMENT_SET_NO":999,"REV_AT_EPOCH":11238,"BSTAR":-1.1233792e-5,"MEAN_MOTION_DOT":-5.71e-6,"MEAN_MOTION_DDOT":0},{"OBJECT_NAME":"AL MUNTHER","OBJECT_ID":"2025-052AG","EPOCH":"2026-03-09T15:29:23.207136","MEAN_MOTION":15.28381521,"ECCENTRICITY":0.0008027,"INCLINATION":97.4001,"RA_OF_ASC_NODE":323.9152,"ARG_OF_PERICENTER":130.7043,"MEAN_ANOMALY":229.4895,"EPHEMERIS_TYPE":0,"CLASSIFICATION_TYPE":"U","NORAD_CAT_ID":63240,"ELEMENT_SET_NO":999,"REV_AT_EPOCH":5479,"BSTAR":0.00065015,"MEAN_MOTION_DOT":0.00017933,"MEAN_MOTION_DDOT":0}]
